48226,ONEWEB-0205,2021,109.55,148.0,+,87.9,Active,1,LEO,Russia,UK,Commercial,Communications,Soyuz,1 48226U 21031S   24177.61727430  .00000128  00000+0  31155-3 0  9998,2 48226  87.8962  73.2541 0001701  77.0581 283.0739 13.14504819153471,13.14504819,0.0001701,LEO
48227,ONEWEB-0206,2021,109.55,148.0,+,87.9,Active,1,LEO,Russia,UK,Commercial,Communications,Soyuz,1 48227U 21031T   24177.20972208 -.00000138  00000+0 -40590-3 0  9995,2 48227  87.8961  73.3248 0001629  78.5544 281.5769 13.14505400153372,13.145054,0.0001629,LEO
48228,ONEWEB-0182,2021,109.55,148.0,+,87.9,Active,1,LEO,Russia,UK,Commercial,Communications,Soyuz,1 48228U 21031U   24177.20496580 -.00000116  00000+0 -34735-3 0  9990,2 48228  87.8966  73.3537 0001872  79.3582 280.7758 13.14504365153581,13.14504365,0.0001872,LEO
48229,ONEWEB-0186,2021,109.55,148.0,+,87.9,Active,1,LEO,Russia,UK,Commercial,Communications,Soyuz,1 48229U 21031V   24177.21606692 -.00000148  00000+0 -43369-3 0  9997,2 48229  87.8962  73.3150 0001920  72.1551 287.9788 13.14505690153539,13.1450569,0.000192,LEO
48230,ONEWEB-0181,2021,109.55,148.0,+,87.9,Active,1,LEO,Russia,UK,Commercial,Communications,Soyuz,1 48230U 21031W   24177.26998568 -.00000124  00000+0 -36800-3 0  9996,2 48230  87.8965  73.3739 0001936  72.3214 287.8127 13.14501339153398,13.14501339,0.0001936,LEO
48231,ONEWEB-0188,2021,109.55,148.0,+,87.9,Active,1,LEO,Russia,UK,Commercial,Communications,Soyuz,1 48231U 21031X   24177.23193069  .00000175  00000+0  43814-3 0  9994,2 48231  87.8975  73.3749 0001778  76.1630 283.9698 13.14502241153291,13.14502241,0.0001778,LEO
48232,ONEWEB-0220,2021,109.55,148.0,+,87.9,Active,1,LEO,Russia,UK,Commercial,Communications,Soyuz,1 48232U 21031Y   24177.27157901 -.00000121  00000+0 -36010-3 0  9997,2 48232  87.8958  73.3330 0001533  77.4523 282.6778 13.14503612153561,13.14503612,0.0001533,LEO
48233,ONEWEB-0165,2021,109.55,148.0,+,87.9,Active,1,LEO,Russia,UK,Commercial,Communications,Soyuz,1 48233U 21031Z   24177.22399830  .00000189  00000+0  47630-3 0  9994,2 48233  87.8961  73.3599 0001820  69.2877 290.8448 13.14504698153518,13.14504698,0.000182,LEO
